[{"OBJECT_NAME":"COSMOS 2503","OBJECT_ID":"2015-009A","EPOCH":"2026-03-09T16:42:37.703808","MEAN_MOTION":15.06275973,"ECCENTRICITY":0.00153206,"INCLINATION":97.8437,"RA_OF_ASC_NODE":123.7175,"ARG_OF_PERICENTER":225.745,"MEAN_ANOMALY":134.252,"EPHEMERIS_TYPE":0,"CLASSIFICATION_TYPE":"U","NORAD_CAT_ID":40420,"ELEMENT_SET_NO":999,"REV_AT_EPOCH":60395,"BSTAR":0.00019589832,"MEAN_MOTION_DOT":2.817e-5,"MEAN_MOTION_DDOT":0},{"OBJECT_NAME":"STARLINK-6239","OBJECT_ID":"2023-061BB","EPOCH":"2026-03-08T13:30:47.288448","MEAN_MOTION":15.02537229,"ECCENTRICITY":0.00011696,"INCLINATION":43.0027,"RA_OF_ASC_NODE":177.7115,"ARG_OF_PERICENTER":275.8336,"MEAN_ANOMALY":84.2373,"EPHEMERIS_TYPE":0,"CLASSIFICATION_TYPE":"U","NORAD_CAT_ID":56423,"ELEMENT_SET_NO":999,"REV_AT_EPOCH":15688,"BSTAR":6.1795971e-5,"MEAN_MOTION_DOT":6.31e-6,"MEAN_MOTION_DDOT":0}]
